SL-16 R/B               
1 25400U 98043G   26050.27860750  .00000062  00000+0  44770-4 0  9996
2 25400  98.8224   3.5152 0010911  69.8212 290.4140 14.26045202436360
SL-16 R/B               
1 25407U 98045B   26049.92604833  .00000199  00000+0  12437-3 0  9998
2 25407  71.0093 221.0317 0005795  40.9625 319.1933 14.16190259424443
ISS (ZARYA)             
1 25544U 98067A   26049.79608032  .00009878  00000+0  18896-3 0  9992
2 25544  51.6323 165.7431 0010935 112.1599 248.0551 15.48691264553403
CZ-4B R/B               
1 25732U 99025C   26050.26451073  .00000049  00000+0  44406-4 0  9999
2 25732  98.6666  94.9792 0037742  39.3382  84.1834 14.18261519385555
OKEAN-O                 
1 25860U 99039A   26050.13118044  .00000614  00000+0  87404-4 0  9993
2 25860  97.9484 110.2076 0001724  79.1594 280.9812 14.80303557431644
SL-16 R/B               
1 25861U 99039B   26050.12856665  .00000505  00000+0  70879-4 0  9998
2 25861  98.0008 109.2490 0013865 321.8331  38.1899 14.81703818434110
DELTA 2 R/B             
1 25876U 99041E   26050.24785263  .00001611  00000+0  29687-3 0  9994
2 25876  51.7661  14.9285 0502215 293.9703  60.9423 14.11767846360427
HELIOS 1B               
1 25977U 99064A   26050.28439133  .00001749  00000+0  19886-3 0  9999
2 25977  98.1717 311.9853 0002337 100.1374 260.0105 14.87617426682529
TERRA                   
1 25994U 99068A   26050.22538891  .00000408  00000+0  92201-4 0  9991
2 25994  97.9634 104.3618 0001384 206.5051 223.2698 14.60993620392384
SL-16 R/B               
1 26070U 00006B   26050.28982649 -.00000042  00000+0  27953-5 0  9999
2 26070  71.0021 136.5265 0017915 215.8497 144.1425 14.15818304345957
TITAN 4B R/B            
1 26474U 00047B   26050.27565475  .00002821  00000+0  18175-3 0  9995
2 26474  67.9878  92.2846 0037410  57.7166 302.7598 15.09390855390133
ENVISAT                 
1 27386U 02009A   26049.83717852  .00000112  00000+0  50186-4 0  9996
2 27386  98.3697   3.8873 0001356  87.4597 326.6012 14.39029472256468
