CCSDS_OMM_VERS = 2.0
CREATION_DATE  = 
ORIGINATOR     = 

OBJECT_NAME    = SL-16 R/B
OBJECT_ID      = 1998-043G
CENTER_NAME    = EARTH
REF_FRAME      = TEME
TIME_SYSTEM    = UTC
MEAN_ELEMENT_THEORY = SGP/SGP4

EPOCH          = 2026-02-19T06:41:11.688000
MEAN_MOTION    = 14.26045202
ECCENTRICITY   = .0010911
INCLINATION    = 98.8224
RA_OF_ASC_NODE = 3.5152
ARG_OF_PERICENTER = 69.8212
MEAN_ANOMALY   = 290.4140

EPHEMERIS_TYPE = 0
CLASSIFICATION_TYPE = U
NORAD_CAT_ID   = 25400
ELEMENT_SET_NO = 999
REV_AT_EPOCH   = 43636
BSTAR          = .44770497E-4
MEAN_MOTION_DOT = .62E-6
MEAN_MOTION_DDOT = 0

CCSDS_OMM_VERS = 2.0
CREATION_DATE  = 
ORIGINATOR     = 

OBJECT_NAME    = SL-16 R/B
OBJECT_ID      = 1998-045B
CENTER_NAME    = EARTH
REF_FRAME      = TEME
TIME_SYSTEM    = UTC
MEAN_ELEMENT_THEORY = SGP/SGP4

EPOCH          = 2026-02-18T22:13:30.575712
MEAN_MOTION    = 14.16190259
ECCENTRICITY   = .0005795
INCLINATION    = 71.0093
RA_OF_ASC_NODE = 221.0317
ARG_OF_PERICENTER = 40.9625
MEAN_ANOMALY   = 319.1933

EPHEMERIS_TYPE = 0
CLASSIFICATION_TYPE = U
NORAD_CAT_ID   = 25407
ELEMENT_SET_NO = 999
REV_AT_EPOCH   = 42444
BSTAR          = .12437E-3
MEAN_MOTION_DOT = .199E-5
MEAN_MOTION_DDOT = 0

CCSDS_OMM_VERS = 2.0
CREATION_DATE  = 
ORIGINATOR     = 

OBJECT_NAME    = ISS (ZARYA)
OBJECT_ID      = 1998-067A
CENTER_NAME    = EARTH
REF_FRAME      = TEME
TIME_SYSTEM    = UTC
MEAN_ELEMENT_THEORY = SGP/SGP4

EPOCH          = 2026-02-18T19:06:21.339648
MEAN_MOTION    = 15.48691264
ECCENTRICITY   = .00109355
INCLINATION    = 51.6323
RA_OF_ASC_NODE = 165.7431
ARG_OF_PERICENTER = 112.1599
MEAN_ANOMALY   = 248.0551

EPHEMERIS_TYPE = 0
CLASSIFICATION_TYPE = U
NORAD_CAT_ID   = 25544
ELEMENT_SET_NO = 999
REV_AT_EPOCH   = 55340
BSTAR          = .18896108E-3
MEAN_MOTION_DOT = .9878E-4
MEAN_MOTION_DDOT = 0

CCSDS_OMM_VERS = 2.0
CREATION_DATE  = 
ORIGINATOR     = 

OBJECT_NAME    = CZ-4B R/B
OBJECT_ID      = 1999-025C
CENTER_NAME    = EARTH
REF_FRAME      = TEME
TIME_SYSTEM    = UTC
MEAN_ELEMENT_THEORY = SGP/SGP4

EPOCH          = 2026-02-19T06:20:53.727072
MEAN_MOTION    = 14.18261519
ECCENTRICITY   = .00377423
INCLINATION    = 98.6666
RA_OF_ASC_NODE = 94.9792
ARG_OF_PERICENTER = 39.3382
MEAN_ANOMALY   = 84.1834

EPHEMERIS_TYPE = 0
CLASSIFICATION_TYPE = U
NORAD_CAT_ID   = 25732
ELEMENT_SET_NO = 999
REV_AT_EPOCH   = 38555
BSTAR          = .44405591E-4
MEAN_MOTION_DOT = .49E-6
MEAN_MOTION_DDOT = 0

CCSDS_OMM_VERS = 2.0
CREATION_DATE  = 
ORIGINATOR     = 

OBJECT_NAME    = OKEAN-O
OBJECT_ID      = 1999-039A
CENTER_NAME    = EARTH
REF_FRAME      = TEME
TIME_SYSTEM    = UTC
MEAN_ELEMENT_THEORY = SGP/SGP4

EPOCH          = 2026-02-19T03:08:53.990016
MEAN_MOTION    = 14.80303557
ECCENTRICITY   = .00017245
INCLINATION    = 97.9484
RA_OF_ASC_NODE = 110.2076
ARG_OF_PERICENTER = 79.1594
MEAN_ANOMALY   = 280.9812

EPHEMERIS_TYPE = 0
CLASSIFICATION_TYPE = U
NORAD_CAT_ID   = 25860
ELEMENT_SET_NO = 999
REV_AT_EPOCH   = 43164
BSTAR          = .8740411E-4
MEAN_MOTION_DOT = .614E-5
MEAN_MOTION_DDOT = 0

CCSDS_OMM_VERS = 2.0
CREATION_DATE  = 
ORIGINATOR     = 

OBJECT_NAME    = SL-16 R/B
OBJECT_ID      = 1999-039B
CENTER_NAME    = EARTH
REF_FRAME      = TEME
TIME_SYSTEM    = UTC
MEAN_ELEMENT_THEORY = SGP/SGP4

EPOCH          = 2026-02-19T03:05:08.158560
MEAN_MOTION    = 14.81703818
ECCENTRICITY   = .00138654
INCLINATION    = 98.0008
RA_OF_ASC_NODE = 109.2490
ARG_OF_PERICENTER = 321.8331
MEAN_ANOMALY   = 38.1899

EPHEMERIS_TYPE = 0
CLASSIFICATION_TYPE = U
NORAD_CAT_ID   = 25861
ELEMENT_SET_NO = 999
REV_AT_EPOCH   = 43411
BSTAR          = .70878601E-4
MEAN_MOTION_DOT = .505E-5
MEAN_MOTION_DDOT = 0

CCSDS_OMM_VERS = 2.0
CREATION_DATE  = 
ORIGINATOR     = 

OBJECT_NAME    = DELTA 2 R/B
OBJECT_ID      = 1999-041E
CENTER_NAME    = EARTH
REF_FRAME      = TEME
TIME_SYSTEM    = UTC
MEAN_ELEMENT_THEORY = SGP/SGP4

EPOCH          = 2026-02-19T05:56:54.467232
MEAN_MOTION    = 14.11767846
ECCENTRICITY   = .05022151
INCLINATION    = 51.7661
RA_OF_ASC_NODE = 14.9285
ARG_OF_PERICENTER = 293.9703
MEAN_ANOMALY   = 60.9423

EPHEMERIS_TYPE = 0
CLASSIFICATION_TYPE = U
NORAD_CAT_ID   = 25876
ELEMENT_SET_NO = 999
REV_AT_EPOCH   = 36042
BSTAR          = .29687497E-3
MEAN_MOTION_DOT = .1611E-4
MEAN_MOTION_DDOT = 0

CCSDS_OMM_VERS = 2.0
CREATION_DATE  = 
ORIGINATOR     = 

OBJECT_NAME    = HELIOS 1B
OBJECT_ID      = 1999-064A
CENTER_NAME    = EARTH
REF_FRAME      = TEME
TIME_SYSTEM    = UTC
MEAN_ELEMENT_THEORY = SGP/SGP4

EPOCH          = 2026-02-19T06:49:31.410912
MEAN_MOTION    = 14.87617426
ECCENTRICITY   = .00023374
INCLINATION    = 98.1717
RA_OF_ASC_NODE = 311.9853
ARG_OF_PERICENTER = 100.1374
MEAN_ANOMALY   = 260.0105

EPHEMERIS_TYPE = 0
CLASSIFICATION_TYPE = U
NORAD_CAT_ID   = 25977
ELEMENT_SET_NO = 999
REV_AT_EPOCH   = 68252
BSTAR          = .19885697E-3
MEAN_MOTION_DOT = .1749E-4
MEAN_MOTION_DDOT = 0

CCSDS_OMM_VERS = 2.0
CREATION_DATE  = 
ORIGINATOR     = 

OBJECT_NAME    = TERRA
OBJECT_ID      = 1999-068A
CENTER_NAME    = EARTH
REF_FRAME      = TEME
TIME_SYSTEM    = UTC
MEAN_ELEMENT_THEORY = SGP/SGP4

EPOCH          = 2026-02-19T05:24:33.601824
MEAN_MOTION    = 14.60993620
ECCENTRICITY   = .0001384
INCLINATION    = 97.9634
RA_OF_ASC_NODE = 104.3618
ARG_OF_PERICENTER = 206.5051
MEAN_ANOMALY   = 223.2698

EPHEMERIS_TYPE = 0
CLASSIFICATION_TYPE = U
NORAD_CAT_ID   = 25994
ELEMENT_SET_NO = 999
REV_AT_EPOCH   = 39238
BSTAR          = .92200645E-4
MEAN_MOTION_DOT = .408E-5
MEAN_MOTION_DDOT = 0

CCSDS_OMM_VERS = 2.0
CREATION_DATE  = 
ORIGINATOR     = 

OBJECT_NAME    = SL-16 R/B
OBJECT_ID      = 2000-006B
CENTER_NAME    = EARTH
REF_FRAME      = TEME
TIME_SYSTEM    = UTC
MEAN_ELEMENT_THEORY = SGP/SGP4

EPOCH          = 2026-02-19T06:57:21.008736
MEAN_MOTION    = 14.15818304
ECCENTRICITY   = .0017915
INCLINATION    = 71.0021
RA_OF_ASC_NODE = 136.5265
ARG_OF_PERICENTER = 215.8497
MEAN_ANOMALY   = 144.1425

EPHEMERIS_TYPE = 0
CLASSIFICATION_TYPE = U
NORAD_CAT_ID   = 26070
ELEMENT_SET_NO = 999
REV_AT_EPOCH   = 34595
BSTAR          = .2795288E-5
MEAN_MOTION_DOT = -.42E-6
MEAN_MOTION_DDOT = 0

CCSDS_OMM_VERS = 2.0
CREATION_DATE  = 
ORIGINATOR     = 

OBJECT_NAME    = TITAN 4B R/B
OBJECT_ID      = 2000-047B
CENTER_NAME    = EARTH
REF_FRAME      = TEME
TIME_SYSTEM    = UTC
MEAN_ELEMENT_THEORY = SGP/SGP4

EPOCH          = 2026-02-19T06:36:56.570400
MEAN_MOTION    = 15.09390855
ECCENTRICITY   = .00374104
INCLINATION    = 67.9878
RA_OF_ASC_NODE = 92.2846
ARG_OF_PERICENTER = 57.7166
MEAN_ANOMALY   = 302.7598

EPHEMERIS_TYPE = 0
CLASSIFICATION_TYPE = U
NORAD_CAT_ID   = 26474
ELEMENT_SET_NO = 999
REV_AT_EPOCH   = 39013
BSTAR          = .18175148E-3
MEAN_MOTION_DOT = .2821E-4
MEAN_MOTION_DDOT = 0

CCSDS_OMM_VERS = 2.0
CREATION_DATE  = 
ORIGINATOR     = 

OBJECT_NAME    = ENVISAT
OBJECT_ID      = 2002-009A
CENTER_NAME    = EARTH
REF_FRAME      = TEME
TIME_SYSTEM    = UTC
MEAN_ELEMENT_THEORY = SGP/SGP4

EPOCH          = 2026-02-18T20:05:32.224128
MEAN_MOTION    = 14.39029472
ECCENTRICITY   = .00013568
INCLINATION    = 98.3697
RA_OF_ASC_NODE = 3.8873
ARG_OF_PERICENTER = 87.4597
MEAN_ANOMALY   = 326.6012

EPHEMERIS_TYPE = 0
CLASSIFICATION_TYPE = U
NORAD_CAT_ID   = 27386
ELEMENT_SET_NO = 999
REV_AT_EPOCH   = 25646
BSTAR          = .50186135E-4
MEAN_MOTION_DOT = .112E-5
MEAN_MOTION_DDOT = 0

